[
    {
        "CCSDS_OMM_VERS": "3.0",
        "COMMENT": "GENERATED VIA SPACE-TRACK.ORG API",
        "CREATION_DATE": "2025-07-29T18:09:25",
        "ORIGINATOR": "18 SPCS",
        "OBJECT_NAME": "OBJECT A",
        "OBJECT_ID": "2025-153A",
        "CENTER_NAME": "EARTH",
        "REF_FRAME": "TEME",
        "TIME_SYSTEM": "UTC",
        "MEAN_ELEMENT_THEORY": "SGP4",
        "EPOCH": "2025-07-28T03:38:01.258944",
        "MEAN_MOTION": "7.28355818",
        "ECCENTRICITY": "0.19226350",
        "INCLINATION": "9.4813",
        "RA_OF_ASC_NODE": "83.2204",
        "ARG_OF_PERICENTER": "195.4464",
        "MEAN_ANOMALY": "157.7707",
        "EPHEMERIS_TYPE": "0",
        "CLASSIFICATION_TYPE": "U",
        "NORAD_CAT_ID": "64866",
        "ELEMENT_SET_NO": "999",
        "REV_AT_EPOCH": "39",
        "BSTAR": "0.01022800000000",
        "MEAN_MOTION_DOT": "0.00000068",
        "MEAN_MOTION_DDOT": "0.0000000000000",
        "SEMIMAJOR_AXIS": "11241.893",
        "PERIOD": "197.706",
        "APOAPSIS": "7025.164",
        "PERIAPSIS": "2702.352",
        "OBJECT_TYPE": "UNKNOWN",
        "RCS_SIZE": "LARGE",
        "COUNTRY_CODE": "TBD",
        "LAUNCH_DATE": "2025-07-22",
        "SITE": "AFETR",
        "DECAY_DATE": null,
        "FILE": "4799578",
        "GP_ID": "293747019",
        "TLE_LINE0": "0 OBJECT A",
        "TLE_LINE1": "1 64866U 25153A   25209.15140346  .00000068  00000-0  10228-1 0  9996",
        "TLE_LINE2": "2 64866   9.4813  83.2204 1922635 195.4464 157.7707  7.28355818   390"
    }
]